[{"OBJECT_NAME":"CS2","OBJECT_ID":"2021-088C","EPOCH":"2026-03-09T17:38:11.846112","MEAN_MOTION":15.3325593,"ECCENTRICITY":0.00116375,"INCLINATION":97.3928,"RA_OF_ASC_NODE":134.2907,"ARG_OF_PERICENTER":82.3491,"MEAN_ANOMALY":277.9072,"EPHEMERIS_TYPE":0,"CLASSIFICATION_TYPE":"U","NORAD_CAT_ID":49262,"ELEMENT_SET_NO":999,"REV_AT_EPOCH":24526,"BSTAR":0.0005617759,"MEAN_MOTION_DOT":0.00018033,"MEAN_MOTION_DDOT":0},{"OBJECT_NAME":"STARLINK-32400","OBJECT_ID":"2024-193J","EPOCH":"2026-03-09T11:10:56.002944","MEAN_MOTION":15.30157214,"ECCENTRICITY":0.00010453,"INCLINATION":53.1604,"RA_OF_ASC_NODE":89.8226,"ARG_OF_PERICENTER":79.4954,"MEAN_ANOMALY":280.6164,"EPHEMERIS_TYPE":0,"CLASSIFICATION_TYPE":"U","NORAD_CAT_ID":61669,"ELEMENT_SET_NO":999,"REV_AT_EPOCH":7652,"BSTAR":-0.00015270135,"MEAN_MOTION_DOT":-4.872e-5,"MEAN_MOTION_DDOT":0}]
